{"type": "FeatureCollection", "features": [ {"type": "Feature", "properties": {"norad_id": 38552, "name": "METEOSAT-10 (MSG-3)", "group": "weather", "lat": -1.829284054516641, "lon": -93.15998734166844, "alt_km": 35784.61920906838, "timestamp": "2025-12-26T11:25:44.865992+00:00", "meta": {"OBJECT_NAME": "METEOSAT-10 (MSG-3)", "OBJECT_ID": "2012-035B", "EPOCH": "2025-12-25T19:55:02.807904", "MEAN_MOTION": 1.00266624, "ECCENTRICITY": 0.0001479, "INCLINATION": 4.2575, "RA_OF_ASC_NODE": 61.6862, "ARG_OF_PERICENTER": 265.3349, "MEAN_ANOMALY": 66.5982, "EPHEMERIS_TYPE": 0, "CLASSIFICATION_TYPE": "U", "NORAD_CAT_ID": 38552, "ELEMENT_SET_NO": 999, "REV_AT_EPOCH": 4911, "BSTAR": 0, "MEAN_MOTION_DOT": 1.4e-07, "MEAN_MOTION_DDOT": 0}, "tle": {"line1": "1 38552U 12035B   25359.82989361  .00000014  00000+0  00000+0 0  9997", "line2": "2 38552   4.2575  61.6862 0001479 265.3349  66.5982  1.00266624 49118"}}, "geometry": {"type": "Point", "coordinates": [-93.15998734166844, -1.829284054516641]}}, {"type": "Feature", "properties": {"norad_id": 38771, "name": "METOP-B", "group": "weather", "lat": 40.59137377186916, "lon": -122.27966716435412, "alt_km": 815.1607537219534, "timestamp": "2025-12-26T11:25:44.866002+00:00", "meta": {"OBJECT_NAME": "METOP-B", "OBJECT_ID": "2012-049A", "EPOCH": "2025-12-26T02:19:54.086592", "MEAN_MOTION": 14.21413292, "ECCENTRICITY": 0.0003289, "INCLINATION": 98.678, "RA_OF_ASC_NODE": 49.8284, "ARG_OF_PERICENTER": 116.4148, "MEAN_ANOMALY": 243.7367, "EPHEMERIS_TYPE": 0, "CLASSIFICATION_TYPE": "U", "NORAD_CAT_ID": 38771, "ELEMENT_SET_NO": 999, "REV_AT_EPOCH": 68867, "BSTAR": 7.8324e-05, "MEAN_MOTION_DOT": 1.28e-06, "MEAN_MOTION_DDOT": 0}, "tle": {"line1": "1 38771U 12049A   25360.09715378  .00000128  00000+0  78324-4 0  9996", "line2": "2 38771  98.6780  49.8284 0003289 116.4148 243.7367 14.21413292688674"}}, "geometry": {"type": "Point", "coordinates": [-122.27966716435412, 40.59137377186916]}}, {"type": "Feature", "properties": {"norad_id": 39216, "name": "INSAT-3D", "group": "weather", "lat": -1.102014940415211, "lon": 36.22323138652264, "alt_km": 35793.10230729926, "timestamp": "2025-12-26T11:25:44.866012+00:00", "meta": {"OBJECT_NAME": "INSAT-3D", "OBJECT_ID": "2013-038B", "EPOCH": "2025-12-26T00:52:38.586144", "MEAN_MOTION": 1.00273672, "ECCENTRICITY": 0.0001945, "INCLINATION": 1.4773, "RA_OF_ASC_NODE": 84.8465, "ARG_OF_PERICENTER": 157.8171, "MEAN_ANOMALY": 354.8337, "EPHEMERIS_TYPE": 0, "CLASSIFICATION_TYPE": "U", "NORAD_CAT_ID": 39216, "ELEMENT_SET_NO": 999, "REV_AT_EPOCH": 4534, "BSTAR": 0, "MEAN_MOTION_DOT": -3.17e-06, "MEAN_MOTION_DDOT": 0}, "tle": {"line1": "1 39216U 13038B   25360.03655771 -.00000317  00000+0  00000+0 0  9996", "line2": "2 39216   1.4773  84.8465 0001945 157.8171 354.8337  1.00273672 45346"}}, "geometry": {"type": "Point", "coordinates": [36.22323138652264, -1.102014940415211]}}, {"type": "Feature", "properties": {"norad_id": 39260, "name": "FENGYUN 3C", "group": "weather", "lat": 74.28356883114884, "lon": -170.5055697197461, "alt_km": 826.3165966168799, "timestamp": "2025-12-26T11:25:44.866022+00:00", "meta": {"OBJECT_NAME": "FENGYUN 3C", "OBJECT_ID": "2013-052A", "EPOCH": "2025-12-26T04:09:28.459584", "MEAN_MOTION": 14.15700261, "ECCENTRICITY": 0.0015037, "INCLINATION": 98.478, "RA_OF_ASC_NODE": 337.1977, "ARG_OF_PERICENTER": 157.3771, "MEAN_ANOMALY": 202.8069, "EPHEMERIS_TYPE": 0, "CLASSIFICATION_TYPE": "U", "NORAD_CAT_ID": 39260, "ELEMENT_SET_NO": 999, "REV_AT_EPOCH": 63408, "BSTAR": 7.1585e-05, "MEAN_MOTION_DOT": 9.9e-07, "MEAN_MOTION_DDOT": 0}, "tle": {"line1": "1 39260U 13052A   25360.17324606  .00000099  00000+0  71585-4 0  9993", "line2": "2 39260  98.4780 337.1977 0015037 157.3771 202.8069 14.15700261634087"}}, "geometry": {"type": "Point", "coordinates": [-170.5055697197461, 74.28356883114884]}}, {"type": "Feature", "properties": {"norad_id": 40069, "name": "METEOR-M 2", "group": "weather", "lat": 5.598780320849083, "lon": -23.304306922582885, "alt_km": 826.680595086912, "timestamp": "2025-12-26T11:25:44.866031+00:00", "meta": {"OBJECT_NAME": "METEOR-M 2", "OBJECT_ID": "2014-037A", "EPOCH": "2025-12-26T04:38:41.144064", "MEAN_MOTION": 14.21392793, "ECCENTRICITY": 0.0005673, "INCLINATION": 98.4922, "RA_OF_ASC_NODE": 337.263, "ARG_OF_PERICENTER": 167.9912, "MEAN_ANOMALY": 192.1402, "EPHEMERIS_TYPE": 0, "CLASSIFICATION_TYPE": "U", "NORAD_CAT_ID": 40069, "ELEMENT_SET_NO": 999, "REV_AT_EPOCH": 59474, "BSTAR": 0.00023551, "MEAN_MOTION_DOT": 4.72e-06, "MEAN_MOTION_DDOT": 0}, "tle": {"line1": "1 40069U 14037A   25360.19353176  .00000472  00000+0  23551-3 0  9996", "line2": "2 40069  98.4922 337.2630 0005673 167.9912 192.1402 14.21392793594744"}}, "geometry": {"type": "Point", "coordinates": [-23.304306922582885, 5.598780320849083]}}, {"type": "Feature", "properties": {"norad_id": 40267, "name": "HIMAWARI-8", "group": "weather", "lat": -0.000895974345145671, "lon": 47.32686032383895, "alt_km": 35787.324085531305, "timestamp": "2025-12-26T11:25:44.866041+00:00", "meta": {"OBJECT_NAME": "HIMAWARI-8", "OBJECT_ID": "2014-060A", "EPOCH": "2025-12-26T00:44:38.655744", "MEAN_MOTION": 1.00270789, "ECCENTRICITY": 9.99e-05, "INCLINATION": 0.0428, "RA_OF_ASC_NODE": 196.6359, "ARG_OF_PERICENTER": 108.3794, "MEAN_ANOMALY": 301.5944, "EPHEMERIS_TYPE": 0, "CLASSIFICATION_TYPE": "U", "NORAD_CAT_ID": 40267, "ELEMENT_SET_NO": 999, "REV_AT_EPOCH": 4102, "BSTAR": 0, "MEAN_MOTION_DOT": -2.54e-06, "MEAN_MOTION_DDOT": 0}, "tle": {"line1": "1 40267U 14060A   25360.03100296 -.00000254  00000+0  00000+0 0  9997", "line2": "2 40267   0.0428 196.6359 0000999 108.3794 301.5944  1.00270789 41020"}}, "geometry": {"type": "Point", "coordinates": [47.32686032383895, -0.000895974345145671]}}, {"type": "Feature", "properties": {"norad_id": 40367, "name": "FENGYUN 2G", "group": "weather", "lat": -4.858147654080901, "lon": 6.035839714030991, "alt_km": 35787.59044795667, "timestamp": "2025-12-26T11:25:44.866052+00:00", "meta": {"OBJECT_NAME": "FENGYUN 2G", "OBJECT_ID": "2014-090A", "EPOCH": "2025-12-26T01:31:24.188160", "MEAN_MOTION": 1.0028183, "ECCENTRICITY": 0.0001733, "INCLINATION": 5.1989, "RA_OF_ASC_NODE": 74.9322, "ARG_OF_PERICENTER": 171.0452, "MEAN_ANOMALY": 330.9574, "EPHEMERIS_TYPE": 0, "CLASSIFICATION_TYPE": "U", "NORAD_CAT_ID": 40367, "ELEMENT_SET_NO": 999, "REV_AT_EPOCH": 4026, "BSTAR": 0, "MEAN_MOTION_DOT": -2.82e-06, "MEAN_MOTION_DDOT": 0}, "tle": {"line1": "1 40367U 14090A   25360.06347440 -.00000282  00000+0  00000+0 0  9999", "line2": "2 40367   5.1989  74.9322 0001733 171.0452 330.9574  1.00281830 40261"}}, "geometry": {"type": "Point", "coordinates": [6.035839714030991, -4.858147654080901]}}, {"type": "Feature", "properties": {"norad_id": 40732, "name": "METEOSAT-11 (MSG-4)", "group": "weather", "lat": -1.1397756690065741, "lon": -84.1808962061565, "alt_km": 35785.08732949964, "timestamp": "2025-12-26T11:25:44.866062+00:00", "meta": {"OBJECT_NAME": "METEOSAT-11 (MSG-4)", "OBJECT_ID": "2015-034A", "EPOCH": "2025-12-25T16:31:52.264704", "MEAN_MOTION": 1.00271545, "ECCENTRICITY": 6.999e-05, "INCLINATION": 2.7688, "RA_OF_ASC_NODE": 71.966, "ARG_OF_PERICENTER": 136.703, "MEAN_ANOMALY": 142.9271, "EPHEMERIS_TYPE": 0, "CLASSIFICATION_TYPE": "U", "NORAD_CAT_ID": 40732, "ELEMENT_SET_NO": 999, "REV_AT_EPOCH": 547, "BSTAR": 0, "MEAN_MOTION_DOT": 8.2e-07, "MEAN_MOTION_DDOT": 0}, "tle": {"line1": "1 40732U 15034A   25359.68879936  .00000082  00000+0  00000+0 0  9997", "line2": "2 40732   2.7688  71.9660 0000699 136.7030 142.9271  1.00271545  5479"}}, "geometry": {"type": "Point", "coordinates": [-84.1808962061565, -1.1397756690065741]}}, {"type": "Feature", "properties": {"norad_id": 41105, "name": "ELEKTRO-L 2", "group": "weather", "lat": 0.0415166353098881, "lon": -107.83066494110894, "alt_km": 35772.64759688158, "timestamp": "2025-12-26T11:25:44.866074+00:00", "meta": {"OBJECT_NAME": "ELEKTRO-L 2", "OBJECT_ID": "2015-074A", "EPOCH": "2025-12-26T04:33:21.945312", "MEAN_MOTION": 1.00271693, "ECCENTRICITY": 0.000362, "INCLINATION": 6.2573, "RA_OF_ASC_NODE": 72.6685, "ARG_OF_PERICENTER": 207.9868, "MEAN_ANOMALY": 228.1548, "EPHEMERIS_TYPE": 0, "CLASSIFICATION_TYPE": "U", "NORAD_CAT_ID": 41105, "ELEMENT_SET_NO": 999, "REV_AT_EPOCH": 3677, "BSTAR": 0, "MEAN_MOTION_DOT": -9.7e-07, "MEAN_MOTION_DDOT": 0}, "tle": {"line1": "1 41105U 15074A   25360.18983733 -.00000097  00000+0  00000+0 0  9991", "line2": "2 41105   6.2573  72.6685 0003620 207.9868 228.1548  1.00271693 36773"}}, "geometry": {"type": "Point", "coordinates": [-107.83066494110894, 0.0415166353098881]}}, {"type": "Feature", "properties": {"norad_id": 41752, "name": "INSAT-3DR", "group": "weather", "lat": -0.12808797530248958, "lon": -19.207988386948408, "alt_km": 35764.32005330008, "timestamp": "2025-12-26T11:25:44.866084+00:00", "meta": {"OBJECT_NAME": "INSAT-3DR", "OBJECT_ID": "2016-054A", "EPOCH": "2025-12-24T15:09:51.705216", "MEAN_MOTION": 1.00271379, "ECCENTRICITY": 0.00142635, "INCLINATION": 0.1198, "RA_OF_ASC_NODE": 86.2568, "ARG_OF_PERICENTER": 185.6475, "MEAN_ANOMALY": 122.9543, "EPHEMERIS_TYPE": 0, "CLASSIFICATION_TYPE": "U", "NORAD_CAT_ID": 41752, "ELEMENT_SET_NO": 999, "REV_AT_EPOCH": 3406, "BSTAR": 0, "MEAN_MOTION_DOT": -5.6e-07, "MEAN_MOTION_DDOT": 0}, "tle": {"line1": "1 41752U 16054A   25358.63184844 -.00000056  00000+0  00000+0 0  9996", "line2": "2 41752   0.1198  86.2568 0014263 185.6475 122.9543  1.00271379 34066"}}, "geometry": {"type": "Point", "coordinates": [-19.207988386948408, -0.12808797530248958]}}]}